[{"OBJECT_NAME":"DAQI 1","OBJECT_ID":"2022-039A","EPOCH":"2026-04-04T06:49:29.856576","MEAN_MOTION":14.57632672,"ECCENTRICITY":0.00047284,"INCLINATION":98.144,"RA_OF_ASC_NODE":34.6885,"ARG_OF_PERICENTER":113.5513,"MEAN_ANOMALY":246.6183,"EPHEMERIS_TYPE":0,"CLASSIFICATION_TYPE":"U","NORAD_CAT_ID":52257,"ELEMENT_SET_NO":999,"REV_AT_EPOCH":21117,"BSTAR":0.00024404827,"MEAN_MOTION_DOT":1.067e-5,"MEAN_MOTION_DDOT":0},{"OBJECT_NAME":"JILIN-1 GAOFEN 3D05","OBJECT_ID":"2022-046C","EPOCH":"2026-04-04T07:00:08.180640","MEAN_MOTION":15.94934967,"ECCENTRICITY":0.00052276,"INCLINATION":97.4767,"RA_OF_ASC_NODE":211.0579,"ARG_OF_PERICENTER":243.5756,"MEAN_ANOMALY":116.4983,"EPHEMERIS_TYPE":0,"CLASSIFICATION_TYPE":"U","NORAD_CAT_ID":52390,"ELEMENT_SET_NO":999,"REV_AT_EPOCH":21898,"BSTAR":0.0015649858,"MEAN_MOTION_DOT":0.0059969,"MEAN_MOTION_DDOT":0.00015083385},{"OBJECT_NAME":"BRO-6","OBJECT_ID":"2022-047AE","EPOCH":"2026-04-04T06:22:27.197184","MEAN_MOTION":15.46159525,"ECCENTRICITY":0.00038,"INCLINATION":97.3401,"RA_OF_ASC_NODE":184.1579,"ARG_OF_PERICENTER":348.2219,"MEAN_ANOMALY":11.8941,"EPHEMERIS_TYPE":0,"CLASSIFICATION_TYPE":"U","NORAD_CAT_ID":52422,"ELEMENT_SET_NO":999,"REV_AT_EPOCH":21971,"BSTAR":0.0011041389,"MEAN_MOTION_DOT":0.00054378,"MEAN_MOTION_DDOT":0},{"OBJECT_NAME":"JILIN-1 GAOFEN 3D27","OBJECT_ID":"2022-048B","EPOCH":"2026-04-04T06:25:13.660608","MEAN_MOTION":15.62675265,"ECCENTRICITY":0.00040371,"INCLINATION":97.5645,"RA_OF_ASC_NODE":202.3755,"ARG_OF_PERICENTER":294.659,"MEAN_ANOMALY":65.4247,"EPHEMERIS_TYPE":0,"CLASSIFICATION_TYPE":"U","NORAD_CAT_ID":52444,"ELEMENT_SET_NO":999,"REV_AT_EPOCH":21789,"BSTAR":0.0012726614,"MEAN_MOTION_DOT":0.0011525,"MEAN_MOTION_DDOT":0},{"OBJECT_NAME":"JILIN-1 GAOFEN 3D28","OBJECT_ID":"2022-048C","EPOCH":"2026-04-04T05:44:07.163520","MEAN_MOTION":15.64222786,"ECCENTRICITY":0.00022998,"INCLINATION":97.5587,"RA_OF_ASC_NODE":202.3061,"ARG_OF_PERICENTER":307.2426,"MEAN_ANOMALY":52.8623,"EPHEMERIS_TYPE":0,"CLASSIFICATION_TYPE":"U","NORAD_CAT_ID":52445,"ELEMENT_SET_NO":999,"REV_AT_EPOCH":21792,"BSTAR":0.0012518891,"MEAN_MOTION_DOT":0.00120475,"MEAN_MOTION_DDOT":0},{"OBJECT_NAME":"VIGORIDE-3","OBJECT_ID":"2022-057AE","EPOCH":"2026-04-04T07:02:25.146240","MEAN_MOTION":15.26494601,"ECCENTRICITY":0.00090322,"INCLINATION":97.6482,"RA_OF_ASC_NODE":232.4049,"ARG_OF_PERICENTER":32.4455,"MEAN_ANOMALY":327.7337,"EPHEMERIS_TYPE":0,"CLASSIFICATION_TYPE":"U","NORAD_CAT_ID":52760,"ELEMENT_SET_NO":999,"REV_AT_EPOCH":21388,"BSTAR":0.00041192263,"MEAN_MOTION_DOT":0.00010691,"MEAN_MOTION_DDOT":0},{"OBJECT_NAME":"ION SCV-006","OBJECT_ID":"2022-057AF","EPOCH":"2026-04-04T05:44:35.636640","MEAN_MOTION":15.43700956,"ECCENTRICITY":0.00183148,"INCLINATION":97.5996,"RA_OF_ASC_NODE":239.4561,"ARG_OF_PERICENTER":26.101,"MEAN_ANOMALY":334.1157,"EPHEMERIS_TYPE":0,"CLASSIFICATION_TYPE":"U","NORAD_CAT_ID":52761,"ELEMENT_SET_NO":999,"REV_AT_EPOCH":21470,"BSTAR":0.00049421016,"MEAN_MOTION_DOT":0.00022378,"MEAN_MOTION_DDOT":0},{"OBJECT_NAME":"SHERPA-AC1","OBJECT_ID":"2022-057AH","EPOCH":"2026-04-03T23:34:33.566016","MEAN_MOTION":15.35182158,"ECCENTRICITY":0.00076118,"INCLINATION":97.6574,"RA_OF_ASC_NODE":240.2241,"ARG_OF_PERICENTER":6.7375,"MEAN_ANOMALY":353.3969,"EPHEMERIS_TYPE":0,"CLASSIFICATION_TYPE":"U","NORAD_CAT_ID":52763,"ELEMENT_SET_NO":999,"REV_AT_EPOCH":21431,"BSTAR":0.0004406923,"MEAN_MOTION_DOT":0.0001499,"MEAN_MOTION_DDOT":0},{"OBJECT_NAME":"OMNI-L2","OBJECT_ID":"2022-057AR","EPOCH":"2026-04-04T03:41:32.244288","MEAN_MOTION":14.81174097,"ECCENTRICITY":0.00064202,"INCLINATION":97.4767,"RA_OF_ASC_NODE":161.4775,"ARG_OF_PERICENTER":194.1262,"MEAN_ANOMALY":165.9773,"EPHEMERIS_TYPE":0,"CLASSIFICATION_TYPE":"U","NORAD_CAT_ID":52771,"ELEMENT_SET_NO":999,"REV_AT_EPOCH":20943,"BSTAR":0.00042360664,"MEAN_MOTION_DOT":3.249e-5,"MEAN_MOTION_DDOT":0},{"OBJECT_NAME":"STEP CUBE LAB-II","OBJECT_ID":"2022-065D","EPOCH":"2026-04-04T06:47:51.841824","MEAN_MOTION":14.6317925,"ECCENTRICITY":0.00073408,"INCLINATION":98.2103,"RA_OF_ASC_NODE":238.4621,"ARG_OF_PERICENTER":254.0278,"MEAN_ANOMALY":106.0115,"EPHEMERIS_TYPE":0,"CLASSIFICATION_TYPE":"U","NORAD_CAT_ID":52897,"ELEMENT_SET_NO":999,"REV_AT_EPOCH":20069,"BSTAR":0.00032355793,"MEAN_MOTION_DOT":1.618e-5,"MEAN_MOTION_DDOT":0},{"OBJECT_NAME":"RANDEV","OBJECT_ID":"2022-065E","EPOCH":"2026-04-04T05:38:56.332608","MEAN_MOTION":14.63561652,"ECCENTRICITY":0.0006681,"INCLINATION":98.209,"RA_OF_ASC_NODE":238.7333,"ARG_OF_PERICENTER":254.6082,"MEAN_ANOMALY":105.4382,"EPHEMERIS_TYPE":0,"CLASSIFICATION_TYPE":"U","NORAD_CAT_ID":52898,"ELEMENT_SET_NO":999,"REV_AT_EPOCH":20043,"BSTAR":0.00036241949,"MEAN_MOTION_DOT":1.833e-5,"MEAN_MOTION_DDOT":0},{"OBJECT_NAME":"SNUGLITE-II","OBJECT_ID":"2022-065F","EPOCH":"2026-04-04T03:53:27.060864","MEAN_MOTION":14.64203669,"ECCENTRICITY":0.00062984,"INCLINATION":98.2082,"RA_OF_ASC_NODE":239.1747,"ARG_OF_PERICENTER":252.561,"MEAN_ANOMALY":107.4904,"EPHEMERIS_TYPE":0,"CLASSIFICATION_TYPE":"U","NORAD_CAT_ID":52899,"ELEMENT_SET_NO":999,"REV_AT_EPOCH":20016,"BSTAR":0.00038127509,"MEAN_MOTION_DOT":1.959e-5,"MEAN_MOTION_DDOT":0},{"OBJECT_NAME":"MIMAN","OBJECT_ID":"2022-065G","EPOCH":"2026-04-04T09:31:12.397728","MEAN_MOTION":14.61756763,"ECCENTRICITY":0.00064272,"INCLINATION":98.2137,"RA_OF_ASC_NODE":237.2994,"ARG_OF_PERICENTER":253.74,"MEAN_ANOMALY":106.3095,"EPHEMERIS_TYPE":0,"CLASSIFICATION_TYPE":"U","NORAD_CAT_ID":52900,"ELEMENT_SET_NO":999,"REV_AT_EPOCH":19966,"BSTAR":0.00024021426,"MEAN_MOTION_DOT":1.151e-5,"MEAN_MOTION_DDOT":0},{"OBJECT_NAME":"STARLINK-4362","OBJECT_ID":"2022-077A","EPOCH":"2026-04-04T06:00:02.000160","MEAN_MOTION":15.05609787,"ECCENTRICITY":0.00019329,"INCLINATION":97.6038,"RA_OF_ASC_NODE":275.2507,"ARG_OF_PERICENTER":61.1221,"MEAN_ANOMALY":41.9813,"EPHEMERIS_TYPE":0,"CLASSIFICATION_TYPE":"U","NORAD_CAT_ID":53043,"ELEMENT_SET_NO":999,"REV_AT_EPOCH":571,"BSTAR":0.00096890211,"MEAN_MOTION_DOT":0.00013932,"MEAN_MOTION_DDOT":0},{"OBJECT_NAME":"LARES-2","OBJECT_ID":"2022-080A","EPOCH":"2026-03-31T05:21:37.648224","MEAN_MOTION":6.38965054,"ECCENTRICITY":0.00059524,"INCLINATION":70.1721,"RA_OF_ASC_NODE":332.0673,"ARG_OF_PERICENTER":3.9036,"MEAN_ANOMALY":356.1767,"EPHEMERIS_TYPE":0,"CLASSIFICATION_TYPE":"U","NORAD_CAT_ID":53105,"ELEMENT_SET_NO":999,"REV_AT_EPOCH":8668,"BSTAR":0,"MEAN_MOTION_DOT":-1.9e-7,"MEAN_MOTION_DDOT":0},{"OBJECT_NAME":"GREENCUBE (IO-117)","OBJECT_ID":"2022-080E","EPOCH":"2026-04-04T13:38:19.154400","MEAN_MOTION":6.4258319,"ECCENTRICITY":0.0009014,"INCLINATION":70.1528,"RA_OF_ASC_NODE":323.8593,"ARG_OF_PERICENTER":305.817,"MEAN_ANOMALY":54.1652,"EPHEMERIS_TYPE":0,"CLASSIFICATION_TYPE":"U","NORAD_CAT_ID":53109,"ELEMENT_SET_NO":999,"REV_AT_EPOCH":8733,"BSTAR":0,"MEAN_MOTION_DOT":-3.0e-8,"MEAN_MOTION_DDOT":0},{"OBJECT_NAME":"STARLINK-4410","OBJECT_ID":"2022-084R","EPOCH":"2026-04-04T06:00:02.000160","MEAN_MOTION":15.04237471,"ECCENTRICITY":0.00017462,"INCLINATION":97.6007,"RA_OF_ASC_NODE":155.2326,"ARG_OF_PERICENTER":60.8917,"MEAN_ANOMALY":92.6191,"EPHEMERIS_TYPE":0,"CLASSIFICATION_TYPE":"U","NORAD_CAT_ID":53204,"ELEMENT_SET_NO":999,"REV_AT_EPOCH":576,"BSTAR":-0.0010718982,"MEAN_MOTION_DOT":-0.00014923,"MEAN_MOTION_DDOT":0},{"OBJECT_NAME":"COSMOS 2558","OBJECT_ID":"2022-089A","EPOCH":"2026-04-04T20:29:57.973344","MEAN_MOTION":15.63571238,"ECCENTRICITY":0.000161,"INCLINATION":97.224,"RA_OF_ASC_NODE":196.6525,"ARG_OF_PERICENTER":266.4328,"MEAN_ANOMALY":93.6747,"EPHEMERIS_TYPE":0,"CLASSIFICATION_TYPE":"U","NORAD_CAT_ID":53323,"ELEMENT_SET_NO":999,"REV_AT_EPOCH":20633,"BSTAR":0.00081185,"MEAN_MOTION_DOT":0.00075698,"MEAN_MOTION_DDOT":0},{"OBJECT_NAME":"TECMS","OBJECT_ID":"2022-090A","EPOCH":"2026-04-04T07:07:19.675200","MEAN_MOTION":15.21397471,"ECCENTRICITY":0.00049473,"INCLINATION":97.3186,"RA_OF_ASC_NODE":164.4778,"ARG_OF_PERICENTER":100.1747,"MEAN_ANOMALY":260.0047,"EPHEMERIS_TYPE":0,"CLASSIFICATION_TYPE":"U","NORAD_CAT_ID":53346,"ELEMENT_SET_NO":999,"REV_AT_EPOCH":20357,"BSTAR":0.00035003445,"MEAN_MOTION_DOT":7.789e-5,"MEAN_MOTION_DDOT":0},{"OBJECT_NAME":"DONGPO 04","OBJECT_ID":"2022-098H","EPOCH":"2026-04-04T14:22:34.387104","MEAN_MOTION":15.94168007,"ECCENTRICITY":0.0005509,"INCLINATION":97.5488,"RA_OF_ASC_NODE":228.9378,"ARG_OF_PERICENTER":248.4272,"MEAN_ANOMALY":111.6415,"EPHEMERIS_TYPE":0,"CLASSIFICATION_TYPE":"U","NORAD_CAT_ID":53451,"ELEMENT_SET_NO":999,"REV_AT_EPOCH":20368,"BSTAR":0.0010446,"MEAN_MOTION_DOT":0.00384633,"MEAN_MOTION_DDOT":6.0133e-5},{"OBJECT_NAME":"DONGPO 02","OBJECT_ID":"2022-098J","EPOCH":"2026-04-04T07:04:25.152384","MEAN_MOTION":15.63241997,"ECCENTRICITY":0.00034409,"INCLINATION":97.542,"RA_OF_ASC_NODE":219.8637,"ARG_OF_PERICENTER":222.6156,"MEAN_ANOMALY":137.4836,"EPHEMERIS_TYPE":0,"CLASSIFICATION_TYPE":"U","NORAD_CAT_ID":53452,"ELEMENT_SET_NO":999,"REV_AT_EPOCH":20321,"BSTAR":0.0011328214,"MEAN_MOTION_DOT":0.00104714,"MEAN_MOTION_DDOT":0},{"OBJECT_NAME":"DONGPO 01","OBJECT_ID":"2022-098K","EPOCH":"2026-04-04T06:34:36.426144","MEAN_MOTION":15.62051723,"ECCENTRICITY":0.00016183,"INCLINATION":97.5487,"RA_OF_ASC_NODE":220.489,"ARG_OF_PERICENTER":185.7538,"MEAN_ANOMALY":174.3701,"EPHEMERIS_TYPE":0,"CLASSIFICATION_TYPE":"U","NORAD_CAT_ID":53453,"ELEMENT_SET_NO":999,"REV_AT_EPOCH":20318,"BSTAR":0.0011354139,"MEAN_MOTION_DOT":0.00100146,"MEAN_MOTION_DDOT":0},{"OBJECT_NAME":"STARLINK-4400","OBJECT_ID":"2022-099D","EPOCH":"2026-04-04T06:38:28.312512","MEAN_MOTION":15.05652483,"ECCENTRICITY":0.00015198,"INCLINATION":97.6031,"RA_OF_ASC_NODE":215.3597,"ARG_OF_PERICENTER":93.5256,"MEAN_ANOMALY":266.6144,"EPHEMERIS_TYPE":0,"CLASSIFICATION_TYPE":"U","NORAD_CAT_ID":53468,"ELEMENT_SET_NO":999,"REV_AT_EPOCH":19982,"BSTAR":8.773307e-5,"MEAN_MOTION_DOT":1.205e-5,"MEAN_MOTION_DDOT":0}]
